BIOMASS                 
1 63772U 25090A   26188.76361432  .00000885  00000+0  16455-3 0  9992
2 63772  98.0749  15.7771 0001419  92.0153 268.1214 14.67536311 63704
GOSAT-GW (IBUKI GW)     
1 64694U 25141A   26188.84913153  .00000446  00000+0  87065-4 0  9994
2 64694  98.0566 125.8304 0001459  85.4344 274.7027 14.67554843 54875
IONOSFERA-M 3           
1 64876U 25155A   26188.86969785  .00000047  00000+0  40948-4 0  9991
2 64876  98.6035 150.2552 0002042 123.4104 236.7269 14.21489994 49343
IONOSFERA-M 4           
1 64877U 25155B   26188.83411568  .00000047  00000+0  41060-4 0  9996
2 64877  98.6034 150.1376 0001676 106.8270 253.3092 14.21492356 49331
MICROCARB               
1 64899U 25156A   26188.73791980  .00000457  00000+0  79090-4 0  9998
2 64899  98.0076 265.5446 0017033 194.5800 165.4919 14.72879666 50995
CO3D 3                  
1 64900U 25156B   26188.72434911  .00003214  00000+0  15154-3 0  9992
2 64900  97.4331 267.1222 0001819 101.1097 259.0343 15.20196410 52651
CO3D 4                  
1 64901U 25156C   26188.72449411  .00001379  00000+0  66801-4 0  9990
2 64901  97.4333 267.1220 0001098 167.6566 192.4696 15.20209399 52651
CO3D 2                  
1 64902U 25156D   26188.75697497  .00003173  00000+0  14963-3 0  9998
2 64902  97.4331 267.0531 0001380  89.6839 270.4554 15.20205906 52654
CO3D 1                  
1 64903U 25156E   26188.75712426  .00003450  00000+0  16238-3 0  9994
2 64903  97.4330 267.0533 0001328 100.9585 259.1800 15.20210927 52650
PRSC-S1                 
1 65055U 25164A   26188.81504190  .00002330  00000+0  16634-3 0  9992
2 65055  41.1289 171.6217 0005495 146.0695 214.0471 15.06598105 51541
SENTINEL-6B             
1 66514U 25264A   26188.77595440 -.00000058  00000+0  14985-4 0  9991
2 66514  66.0415  92.4168 0007881 268.8088  91.2024 12.80930125 29808
CAS500-3                
1 66655U 25274F   26188.78765669  .00001044  00000+0  11856-3 0  9999
2 66655  97.7440 116.3702 0006715  57.7642 302.4225 14.88372231 33217
CSG-3                   
1 67304U 26001A   26187.97961446  .00000256  00000+0  38760-4 0  9999
2 67304  97.8893  11.2950 0001483  94.2500 265.8883 14.82148038 27390
PRSC-E03                
1 68835U 26092A   26188.79915159  .00002069  00000+0  14359-3 0  9991
2 68835  38.0022 328.1275 0004173 204.3724 155.6841 15.06785451 11062
CAS500-2                
1 69013U 26100AK  26188.68203485  .00004065  00000+0  18713-3 0  9996
2 69013  97.3874  86.1516 0008340 323.2035  36.8628 15.20843539  9922
